TRANSPORTER-11 OBJECT A 
1 60468U 24149A   26068.74646182  .00010774  00000+0  36054-3 0  9993
2 60468  97.3780 149.0949 0003110 191.0010 169.1164 15.31141332 86830
STARLINK-32909          
1 62894U 25024R   26068.10627643  .00031821  00000+0  11612-2 0  9990
2 62894  43.0022 328.9255 0001476 288.4583  71.6108 15.27571188 62176
