[{"OBJECT_NAME":"TRANSPORTER-11 OBJECT A","OBJECT_ID":"2024-149A","EPOCH":"2026-03-09T17:54:54.302112","MEAN_MOTION":15.31141332,"ECCENTRICITY":0.00031096,"INCLINATION":97.378,"RA_OF_ASC_NODE":149.0949,"ARG_OF_PERICENTER":191.001,"MEAN_ANOMALY":169.1164,"EPHEMERIS_TYPE":0,"CLASSIFICATION_TYPE":"U","NORAD_CAT_ID":60468,"ELEMENT_SET_NO":999,"REV_AT_EPOCH":8683,"BSTAR":0.00036053677,"MEAN_MOTION_DOT":0.00010774,"MEAN_MOTION_DDOT":0},{"OBJECT_NAME":"STARLINK-32909","OBJECT_ID":"2025-024R","EPOCH":"2026-03-09T02:33:02.283552","MEAN_MOTION":15.27571188,"ECCENTRICITY":0.00014763,"INCLINATION":43.0022,"RA_OF_ASC_NODE":328.9255,"ARG_OF_PERICENTER":288.4583,"MEAN_ANOMALY":71.6108,"EPHEMERIS_TYPE":0,"CLASSIFICATION_TYPE":"U","NORAD_CAT_ID":62894,"ELEMENT_SET_NO":999,"REV_AT_EPOCH":6217,"BSTAR":0.0011612019,"MEAN_MOTION_DOT":0.00031821,"MEAN_MOTION_DDOT":0}]
